{
  "type": "FeatureCollection",
  "features": [
    {
      "type": "Feature",
      "properties": {
        "norad_id": 35159,
        "name": "FENGYUN 1C DEB",
        "group": "fengyun-1c-debris",
        "lat": -21.146002642432826,
        "lon": -121.45639859865342,
        "alt_km": 739.0713231275431,
        "timestamp": "2025-12-12T18:57:44.417074+00:00",
        "meta_object_name": "FENGYUN 1C DEB",
        "meta_object_id": "1999-025DMP",
        "meta_epoch": "2025-12-09T03:46:25.809024",
        "meta_mean_motion": 14.45073586,
        "meta_eccentricity": 0.00124144,
        "meta_inclination": 98.838,
        "meta_ra_of_asc_node": 58.2154,
        "meta_arg_of_pericenter": 183.5323,
        "meta_mean_anomaly": 209.1059,
        "meta_ephemeris_type": 0,
        "meta_classification_type": "U",
        "meta_norad_cat_id": 35159,
        "meta_element_set_no": 999,
        "meta_rev_at_epoch": 61429,
        "meta_bstar": 0.002289677,
        "meta_mean_motion_dot": 7.97e-05,
        "meta_mean_motion_ddot": 0,
        "tle_line1": "1 35159U 99025DMP 25343.15724316  .00007970  00000+0  22897-2 0  9996",
        "tle_line2": "2 35159  98.8380  58.2154 0012414 183.5323 209.1059 14.45073586614294"
      },
      "geometry": {
        "type": "Point",
        "coordinates": [
          -121.45639859865342,
          -21.146002642432826
        ]
      }
    },
    {
      "type": "Feature",
      "properties": {
        "norad_id": 35160,
        "name": "FENGYUN 1C DEB",
        "group": "fengyun-1c-debris",
        "lat": -75.13407049232691,
        "lon": 138.63288387299957,
        "alt_km": 685.3320283175517,
        "timestamp": "2025-12-12T18:57:44.417084+00:00",
        "meta_object_name": "FENGYUN 1C DEB",
        "meta_object_id": "1999-025DMQ",
        "meta_epoch": "2025-12-10T13:48:36.927360",
        "meta_mean_motion": 14.35952842,
        "meta_eccentricity": 0.0175991,
        "meta_inclination": 99.1552,
        "meta_ra_of_asc_node": 98.8694,
        "meta_arg_of_pericenter": 245.7685,
        "meta_mean_anomaly": 112.5022,
        "meta_ephemeris_type": 0,
        "meta_classification_type": "U",
        "meta_norad_cat_id": 35160,
        "meta_element_set_no": 999,
        "meta_rev_at_epoch": 64900,
        "meta_bstar": 0.0007719,
        "meta_mean_motion_dot": 2.617e-05,
        "meta_mean_motion_ddot": 0,
        "tle_line1": "1 35160U 99025DMQ 25344.57542740  .00002617  00000+0  77190-3 0  9994",
        "tle_line2": "2 35160  99.1552  98.8694 0175991 245.7685 112.5022 14.35952842649006"
      },
      "geometry": {
        "type": "Point",
        "coordinates": [
          138.63288387299957,
          -75.13407049232691
        ]
      }
    },
    {
      "type": "Feature",
      "properties": {
        "norad_id": 35165,
        "name": "FENGYUN 1C DEB",
        "group": "fengyun-1c-debris",
        "lat": 48.88331237985922,
        "lon": 68.35136169496812,
        "alt_km": 759.6213896848385,
        "timestamp": "2025-12-12T18:57:44.417094+00:00",
        "meta_object_name": "FENGYUN 1C DEB",
        "meta_object_id": "1999-025DMV",
        "meta_epoch": "2025-11-30T05:14:00.190464",
        "meta_mean_motion": 14.33570134,
        "meta_eccentricity": 0.00218891,
        "meta_inclination": 98.8778,
        "meta_ra_of_asc_node": 65.7738,
        "meta_arg_of_pericenter": 100.7376,
        "meta_mean_anomaly": 259.6273,
        "meta_ephemeris_type": 0,
        "meta_classification_type": "U",
        "meta_norad_cat_id": 35165,
        "meta_element_set_no": 999,
        "meta_rev_at_epoch": 89541,
        "meta_bstar": 0.0024382815,
        "meta_mean_motion_dot": 6.727e-05,
        "meta_mean_motion_ddot": 0,
        "tle_line1": "1 35165U 99025DMV 25334.21805776  .00006727  00000+0  24383-2 0  9991",
        "tle_line2": "2 35165  98.8778  65.7738 0021889 100.7376 259.6273 14.33570134895419"
      },
      "geometry": {
        "type": "Point",
        "coordinates": [
          68.35136169496812,
          48.88331237985922
        ]
      }
    },
    {
      "type": "Feature",
      "properties": {
        "norad_id": 35167,
        "name": "FENGYUN 1C DEB",
        "group": "fengyun-1c-debris",
        "lat": 6.39222480518938,
        "lon": 160.94098822864007,
        "alt_km": 647.4936343830213,
        "timestamp": "2025-12-12T18:57:44.417104+00:00",
        "meta_object_name": "FENGYUN 1C DEB",
        "meta_object_id": "1999-025DMX",
        "meta_epoch": "2025-12-10T17:28:55.626240",
        "meta_mean_motion": 14.31147278,
        "meta_eccentricity": 0.02294136,
        "meta_inclination": 98.4466,
        "meta_ra_of_asc_node": 337.9809,
        "meta_arg_of_pericenter": 210.1422,
        "meta_mean_anomaly": 148.6396,
        "meta_ephemeris_type": 0,
        "meta_classification_type": "U",
        "meta_norad_cat_id": 35167,
        "meta_element_set_no": 999,
        "meta_rev_at_epoch": 69991,
        "meta_bstar": 0.00065844155,
        "meta_mean_motion_dot": 2.269e-05,
        "meta_mean_motion_ddot": 0,
        "tle_line1": "1 35167U 99025DMX 25344.72842160  .00002269  00000+0  65844-3 0  9993",
        "tle_line2": "2 35167  98.4466 337.9809 0229413 210.1422 148.6396 14.31147278699912"
      },
      "geometry": {
        "type": "Point",
        "coordinates": [
          160.94098822864007,
          6.39222480518938
        ]
      }
    },
    {
      "type": "Feature",
      "properties": {
        "norad_id": 35168,
        "name": "FENGYUN 1C DEB",
        "group": "fengyun-1c-debris",
        "lat": 63.535668240742126,
        "lon": 75.6647399340544,
        "alt_km": 745.3484618126186,
        "timestamp": "2025-12-12T18:57:44.417114+00:00",
        "meta_object_name": "FENGYUN 1C DEB",
        "meta_object_id": "1999-025DMY",
        "meta_epoch": "2025-12-11T11:53:15.848448",
        "meta_mean_motion": 14.15522112,
        "meta_eccentricity": 0.01260569,
        "meta_inclination": 98.2752,
        "meta_ra_of_asc_node": 237.4634,
        "meta_arg_of_pericenter": 131.2558,
        "meta_mean_anomaly": 229.9558,
        "meta_ephemeris_type": 0,
        "meta_classification_type": "U",
        "meta_norad_cat_id": 35168,
        "meta_element_set_no": 999,
        "meta_rev_at_epoch": 57906,
        "meta_bstar": 0.00034767464,
        "meta_mean_motion_dot": 6.96e-06,
        "meta_mean_motion_ddot": 0,
        "tle_line1": "1 35168U 99025DMY 25345.49532232  .00000696  00000+0  34767-3 0  9997",
        "tle_line2": "2 35168  98.2752 237.4634 0126056 131.2558 229.9558 14.15522112579063"
      },
      "geometry": {
        "type": "Point",
        "coordinates": [
          75.6647399340544,
          63.535668240742126
        ]
      }
    },
    {
      "type": "Feature",
      "properties": {
        "norad_id": 35169,
        "name": "FENGYUN 1C DEB",
        "group": "fengyun-1c-debris",
        "lat": -49.48374204593491,
        "lon": 39.51556019547038,
        "alt_km": 761.542207008577,
        "timestamp": "2025-12-12T18:57:44.417124+00:00",
        "meta_object_name": "FENGYUN 1C DEB",
        "meta_object_id": "1999-025DMZ",
        "meta_epoch": "2025-12-05T11:24:48.463488",
        "meta_mean_motion": 14.58604827,
        "meta_eccentricity": 0.01525013,
        "meta_inclination": 99.1294,
        "meta_ra_of_asc_node": 222.329,
        "meta_arg_of_pericenter": 129.6073,
        "meta_mean_anomaly": 231.8702,
        "meta_ephemeris_type": 0,
        "meta_classification_type": "U",
        "meta_norad_cat_id": 35169,
        "meta_element_set_no": 999,
        "meta_rev_at_epoch": 65674,
        "meta_bstar": 0.00095565714,
        "meta_mean_motion_dot": 5.168e-05,
        "meta_mean_motion_ddot": 0,
        "tle_line1": "1 35169U 99025DMZ 25339.47556092  .00005168  00000+0  95566-3 0  9992",
        "tle_line2": "2 35169  99.1294 222.3290 0152501 129.6073 231.8702 14.58604827656748"
      },
      "geometry": {
        "type": "Point",
        "coordinates": [
          39.51556019547038,
          -49.48374204593491
        ]
      }
    },
    {
      "type": "Feature",
      "properties": {
        "norad_id": 35171,
        "name": "FENGYUN 1C DEB",
        "group": "fengyun-1c-debris",
        "lat": -76.08491478364294,
        "lon": 177.96724727556722,
        "alt_km": 838.8181934814183,
        "timestamp": "2025-12-12T18:57:44.417134+00:00",
        "meta_object_name": "FENGYUN 1C DEB",
        "meta_object_id": "1999-025DNB",
        "meta_epoch": "2025-12-11T20:57:16.263360",
        "meta_mean_motion": 13.94959531,
        "meta_eccentricity": 0.0137836,
        "meta_inclination": 99.0086,
        "meta_ra_of_asc_node": 137.2576,
        "meta_arg_of_pericenter": 321.1318,
        "meta_mean_anomaly": 37.9994,
        "meta_ephemeris_type": 0,
        "meta_classification_type": "U",
        "meta_norad_cat_id": 35171,
        "meta_element_set_no": 999,
        "meta_rev_at_epoch": 88546,
        "meta_bstar": 0.0023588,
        "meta_mean_motion_dot": 3.391e-05,
        "meta_mean_motion_ddot": 0,
        "tle_line1": "1 35171U 99025DNB 25345.87310490  .00003391  00000+0  23588-2 0  9996",
        "tle_line2": "2 35171  99.0086 137.2576 0137836 321.1318  37.9994 13.94959531885460"
      },
      "geometry": {
        "type": "Point",
        "coordinates": [
          177.96724727556722,
          -76.08491478364294
        ]
      }
    }
  ]
}